

*******************************************************************************
Ephemeris / WWW_USER Thu Dec 21 08:34:37 2023 Pasadena, USA      / Horizons
*******************************************************************************
Target body name: Neptune (899)                   {source: nep102_merged}
Center body name: Solar System Barycenter (0)     {source: DE441}
Center-site name: BODY CENTER
*******************************************************************************
Start time      : A.D. 2022-Dec-01 00:00:00.0000 TDB
Stop  time      : A.D. 2023-Dec-01 00:00:00.0000 TDB
Step-size       : 1440 minutes
*******************************************************************************
Center geodetic : 0.0, 0.0, 0.0                   {E-lon(deg),Lat(deg),Alt(km)}
Center cylindric: 0.0, 0.0, 0.0                   {E-lon(deg),Dxy(km),Dz(km)}
Center radii    : (undefined)
Output units    : KM-S
Calendar mode   : Gregorian
Output type     : GEOMETRIC cartesian states
Output format   : 2 (position and velocity)
Reference frame : Ecliptic of J2000.0
*******************************************************************************
            JDTDB,            Calendar Date (TDB),                      X,                      Y,                      Z,                     VX,                     VY,                     VZ,
**************************************************************************************************************************************************************************************************
$$SOE
2460129.500000000, A.D. 2023-Jul-04 00:00:00.0000,  4.457904432267019E+09, -3.536464669388178E+08, -9.545405412072685E+07,  3.938024931528537E-01,  5.450466150428081E+00, -1.212792345162892E-01,
2460130.500000000, A.D. 2023-Jul-05 00:00:00.0000,  4.457938435195250E+09, -3.531755442405563E+08, -9.546453423757185E+07,  3.933025272467690E-01,  5.450522998891991E+00, -1.213155235117793E-01,
2460131.500000000, A.D. 2023-Jul-06 00:00:00.0000,  4.457972394978329E+09, -3.527046164326526E+08, -9.547501734999695E+07,  3.928037627811892E-01,  5.450584429184923E+00, -1.213485766495928E-01,
2460132.500000000, A.D. 2023-Jul-07 00:00:00.0000,  4.458006311720060E+09, -3.522336831192365E+08, -9.548550317842418E+07,  3.923061997625951E-01,  5.450650441305894E+00, -1.213783939298634E-01,
2460133.500000000, A.D. 2023-Jul-08 00:00:00.0000,  4.458040185524249E+09, -3.517627439044383E+08, -9.549599144327538E+07,  3.918098381974670E-01,  5.450721035253922E+00, -1.214049753527247E-01,
2460134.500000000, A.D. 2023-Jul-09 00:00:00.0000,  4.458074016494702E+09, -3.512917983923881E+08, -9.550648186497246E+07,  3.913146780922848E-01,  5.450796211028017E+00, -1.214283209183094E-01,
2460135.500000000, A.D. 2023-Jul-10 00:00:00.0000,  4.458107804735226E+09, -3.508208461872161E+08, -9.551697416393736E+07,  3.908207194535275E-01,  5.450875968627202E+00, -1.214484306267509E-01,
2460136.500000000, A.D. 2023-Jul-11 00:00:00.0000,  4.458141550349627E+09, -3.503498868930528E+08, -9.552746806059204E+07,  3.903279622876739E-01,  5.450960308050496E+00, -1.214653044781835E-01,
2460137.500000000, A.D. 2023-Jul-12 00:00:00.0000,  4.458175253441712E+09, -3.498789201140285E+08, -9.553796327535851E+07,  3.898364066012021E-01,  5.451049229296919E+00, -1.214789424727409E-01,
2460138.500000000, A.D. 2023-Jul-13 00:00:00.0000,  4.458208914115291E+09, -3.494079454542738E+08, -9.554845952865870E+07,  3.893460524005893E-01,  5.451142732365489E+00, -1.214893446105556E-01,
2460139.500000000, A.D. 2023-Jul-14 00:00:00.0000,  4.458242532474170E+09, -3.489369625179192E+08, -9.555895654091455E+07,  3.888568996923126E-01,  5.451240817255234E+00, -1.214965108917605E-01,
2460140.500000000, A.D. 2023-Jul-15 00:00:00.0000,  4.458276108622160E+09, -3.484659709090956E+08, -9.556945403254810E+07,  3.883689484828484E-01,  5.451343483965176E+00, -1.215004413164913E-01,
2460141.500000000, A.D. 2023-Jul-16 00:00:00.0000,  4.458309635234010E+09, -3.479949737524039E+08, -9.557994883731940E+07,  3.877103205922701E-01,  5.451367918512012E+00, -1.214355918132874E-01,
2460142.500000000, A.D. 2023-Jul-17 00:00:00.0000,  4.458343105015861E+09, -3.475239746291955E+08, -9.559043823025320E+07,  3.870534392702127E-01,  5.451389005185774E+00, -1.213751673017687E-01,
2460143.500000000, A.D. 2023-Jul-18 00:00:00.0000,  4.458376518118617E+09, -3.470529738287266E+08, -9.560092259366888E+07,  3.863983045231512E-01,  5.451406743985494E+00, -1.213191677820680E-01,
2460144.500000000, A.D. 2023-Jul-19 00:00:00.0000,  4.458409874693184E+09, -3.465819716402536E+08, -9.561140230988574E+07,  3.857449163575595E-01,  5.451421134910199E+00, -1.212675932543203E-01,
2460145.500000000, A.D. 2023-Jul-20 00:00:00.0000,  4.458443174890466E+09, -3.461109683530329E+08, -9.562187776122305E+07,  3.850932747795980E-01,  5.451432177958935E+00, -1.212204437186657E-01,
2460146.500000000, A.D. 2023-Jul-21 00:00:00.0000,  4.458476418861367E+09, -3.456399642563211E+08, -9.563234933000012E+07,  3.844433797959266E-01,  5.451439873130708E+00, -1.211777191752244E-01,
2460147.500000000, A.D. 2023-Jul-22 00:00:00.0000,  4.458509606756796E+09, -3.451689596393749E+08, -9.564281739853628E+07,  3.837952314130037E-01,  5.451444220424552E+00, -1.211394196241322E-01,
2460148.500000000, A.D. 2023-Jul-23 00:00:00.0000,  4.458542738727657E+09, -3.446979547914507E+08, -9.565328234915097E+07,  3.831488296372879E-01,  5.451445219839504E+00, -1.211055450655232E-01,
2460149.500000000, A.D. 2023-Jul-24 00:00:00.0000,  4.458575814924860E+09, -3.442269500018055E+08, -9.566374456416340E+07,  3.825041744752370E-01,  5.451442871374594E+00, -1.210760954995291E-01,
2460150.500000000, A.D. 2023-Jul-25 00:00:00.0000,  4.458608835499310E+09, -3.437559455596961E+08, -9.567420442589304E+07,  3.818612659333091E-01,  5.451437175028860E+00, -1.210510709262853E-01,
2460151.500000000, A.D. 2023-Jul-26 00:00:00.0000,  4.458641800601916E+09, -3.432849417543795E+08, -9.568466231665926E+07,  3.812201040179615E-01,  5.451428130801339E+00, -1.210304713459254E-01,
2460152.500000000, A.D. 2023-Jul-27 00:00:00.0000,  4.458674710383587E+09, -3.428139388751127E+08, -9.569511861878142E+07,  3.805806887356515E-01,  5.451415738691068E+00, -1.210142967585810E-01,
2460153.500000000, A.D. 2023-Jul-28 00:00:00.0000,  4.458707564995233E+09, -3.423429372111528E+08, -9.570557371457894E+07,  3.799430200928360E-01,  5.451399998697085E+00, -1.210025471643892E-01,
2460154.500000000, A.D. 2023-Jul-29 00:00:00.0000,  4.458740364587763E+09, -3.418719370517569E+08, -9.571602798637125E+07,  3.793070980959715E-01,  5.451380910818432E+00, -1.209952225634803E-01,
2460155.500000000, A.D. 2023-Jul-30 00:00:00.0000,  4.458773109312087E+09, -3.414009386861824E+08, -9.572648181647775E+07,  3.786729227515143E-01,  5.451358475054149E+00, -1.209923229559904E-01,
2460156.500000000, A.D. 2023-Jul-31 00:00:00.0000,  4.458805799319118E+09, -3.409299424036867E+08, -9.573693558721784E+07,  3.780404940659206E-01,  5.451332691403276E+00, -1.209938483420503E-01,
2460157.500000000, A.D. 2023-Aug-01 00:00:00.0000,  4.458838434759766E+09, -3.404589484935271E+08, -9.574738968091102E+07,  3.774098120456461E-01,  5.451303559864858E+00, -1.209997987217959E-01,
2460158.500000000, A.D. 2023-Aug-02 00:00:00.0000,  4.458871015784943E+09, -3.399879572449613E+08, -9.575784447987680E+07,  3.767808766971460E-01,  5.451271080437939E+00, -1.210101740953593E-01,
2460159.500000000, A.D. 2023-Aug-03 00:00:00.0000,  4.458903542545564E+09, -3.395169689472467E+08, -9.576830036643456E+07,  3.761536880268758E-01,  5.451235253121563E+00, -1.210249744628746E-01,
2460160.500000000, A.D. 2023-Aug-04 00:00:00.0000,  4.458936015192539E+09, -3.390459838896411E+08, -9.577875772290382E+07,  3.755282460412901E-01,  5.451196077914776E+00, -1.210441998244747E-01,
2460161.500000000, A.D. 2023-Aug-05 00:00:00.0000,  4.458968439649675E+09, -3.385749959321826E+08, -9.578921581450324E+07,  3.750372103097236E-01,  5.451303052824112E+00, -1.210405817999682E-01,
2460162.500000000, A.D. 2023-Aug-06 00:00:00.0000,  4.459000821504793E+09, -3.381039987021555E+08, -9.579967341930588E+07,  3.745420882118909E-01,  5.451410720703800E+00, -1.210329313812117E-01,
2460163.500000000, A.D. 2023-Aug-07 00:00:00.0000,  4.459033160404831E+09, -3.376329921396874E+08, -9.581013018891293E+07,  3.740428797542459E-01,  5.451519081552891E+00, -1.210212485683373E-01,
2460164.500000000, A.D. 2023-Aug-08 00:00:00.0000,  4.459065455996727E+09, -3.371619761849056E+08, -9.582058577492556E+07,  3.735395849432424E-01,  5.451628135370433E+00, -1.210055333614786E-01,
2460165.500000000, A.D. 2023-Aug-09 00:00:00.0000,  4.459097707927423E+09, -3.366909507779379E+08, -9.583103982894488E+07,  3.730322037853335E-01,  5.451737882155480E+00, -1.209857857607686E-01,
2460166.500000000, A.D. 2023-Aug-10 00:00:00.0000,  4.459129915843855E+09, -3.362199158589118E+08, -9.584149200257206E+07,  3.725207362869726E-01,  5.451848321907082E+00, -1.209620057663412E-01,
2460167.500000000, A.D. 2023-Aug-11 00:00:00.0000,  4.459162079392966E+09, -3.357488713679550E+08, -9.585194194740836E+07,  3.720051824546124E-01,  5.451959454624292E+00, -1.209341933783281E-01,
2460168.500000000, A.D. 2023-Aug-12 00:00:00.0000,  4.459194198221697E+09, -3.352778172451953E+08, -9.586238931505492E+07,  3.714855422947054E-01,  5.452071280306165E+00, -1.209023485968634E-01,
2460169.500000000, A.D. 2023-Aug-13 00:00:00.0000,  4.459226271976989E+09, -3.348067534307607E+08, -9.587283375711299E+07,  3.709618158137040E-01,  5.452183798951756E+00, -1.208664714220800E-01,
2460170.500000000, A.D. 2023-Aug-14 00:00:00.0000,  4.459258300305784E+09, -3.343356798647792E+08, -9.588327492518374E+07,  3.704340030180596E-01,  5.452297010560120E+00, -1.208265618541102E-01,
2460171.500000000, A.D. 2023-Aug-15 00:00:00.0000,  4.459290282855024E+09, -3.338645964873786E+08, -9.589371247086844E+07,  3.699021039142243E-01,  5.452410915130317E+00, -1.207826198930890E-01,
